1 33105U 08032A   16005.53148144 -.00000062  00000-0 -42071-5 0  9996
2 33105  66.0412 139.8252 0007468 270.3931 172.7005 12.80930697352886
